start=new Date('2023-05-17T00:00:00.000Z').valueOf();
sats=[{"FILE":"3909742","EPOCH":"2023-05-16T19:18:07.936992","APOAPSIS":"545.527","OBJECT_ID":"2022-175Z","MEAN_MOTION":"15.07207652","REV_AT_EPOCH":"2495","SITE":"AFETR","RA_OF_ASC_NODE":"323.4778","OBJECT_TYPE":"PAYLOAD","MEAN_MOTION_DOT":"0.00001398","EPHEMERIS_TYPE":"0","ECCENTRICITY":"0.00011380","LAUNCH_DATE":"2022-12-17","CENTER_NAME":"EARTH","NORAD_CAT_ID":"54781","SEMIMAJOR_AXIS":"6922.874","PERIAPSIS":"543.952","TLE_LINE1":"1 54781U 22175Z   23136.80425853  .00001398  00000-0  11041-3 0  9993","BSTAR":"0.00011041000000","INCLINATION":"53.2172","GP_ID":"231999977","RCS_SIZE":"LARGE","DECAY_DATE":null,"CLASSIFICATION_TYPE":"U","PERIOD":"95.541","ELEMENT_SET_NO":"999","TIME_SYSTEM":"UTC","MEAN_ELEMENT_THEORY":"SGP4","REF_FRAME":"TEME","OBJECT_NAME":"STARLINK-5443","MEAN_MOTION_DDOT":"0.0000000000000","COUNTRY_CODE":"US","TLE_LINE2":"2 54781  53.2172 323.4778 0001138  82.8952 277.2168 15.07207652 24956","MEAN_ANOMALY":"277.2168","ARG_OF_PERICENTER":"82.8952"},{"COUNTRY_CODE":"US","OBJECT_NAME":"STARLINK-5437","MEAN_MOTION_DDOT":"0.0000000000000","ARG_OF_PERICENTER":"74.7088","TLE_LINE2":"2 54782  53.2186 292.8265 0001283  74.7088 294.4346 15.15036907  1308","MEAN_ANOMALY":"294.4346","PERIOD":"95.047","ELEMENT_SET_NO":"999","RCS_SIZE":"LARGE","DECAY_DATE":null,"CLASSIFICATION_TYPE":"U","TIME_SYSTEM":"UTC","MEAN_ELEMENT_THEORY":"SGP4","REF_FRAME":"TEME","PERIAPSIS":"519.983","TLE_LINE1":"1 54782U 22175AA  23136.91667824 -.00594393  00000-0 -33670-1 0  9996","BSTAR":"-0.03367000000000","INCLINATION":"53.2186","NORAD_CAT_ID":"54782","SEMIMAJOR_AXIS":"6899.004","GP_ID":"232000227","REV_AT_EPOCH":"130","SITE":"AFETR","RA_OF_ASC_NODE":"292.8265","OBJECT_TYPE":"PAYLOAD","MEAN_MOTION_DOT":"-0.00594393","EPOCH":"2023-05-16T22:00:00.999936","FILE":"3909742","APOAPSIS":"521.754","OBJECT_ID":"2022-175AA","MEAN_MOTION":"15.15036907","ECCENTRICITY":"0.00012830","CENTER_NAME":"EARTH","LAUNCH_DATE":"2022-12-17","EPHEMERIS_TYPE":"0"},{"RCS_SIZE":"LARGE","DECAY_DATE":null,"CLASSIFICATION_TYPE":"U","ELEMENT_SET_NO":"999","PERIOD":"95.437","TIME_SYSTEM":"UTC","MEAN_ELEMENT_THEORY":"SGP4","REF_FRAME":"TEME","OBJECT_NAME":"STARLINK-5439","MEAN_MOTION_DDOT":"0.0000000000000","COUNTRY_CODE":"US","TLE_LINE2":"2 54783  53.2169 323.4708 0001076  79.7570 280.3544 15.08842227 24956","MEAN_ANOMALY":"280.3544","ARG_OF_PERICENTER":"79.7570","EPOCH":"2023-05-16T19:15:07.586496","FILE":"3909742","OBJECT_ID":"2022-175AB","APOAPSIS":"540.483","MEAN_MOTION":"15.08842227","REV_AT_EPOCH":"2495","SITE":"AFETR","OBJECT_TYPE":"PAYLOAD","RA_OF_ASC_NODE":"323.4708","MEAN_MOTION_DOT":"0.00000825","EPHEMERIS_TYPE":"0","ECCENTRICITY":"0.00010760","CENTER_NAME":"EARTH","LAUNCH_DATE":"2022-12-17","NORAD_CAT_ID":"54783","SEMIMAJOR_AXIS":"6917.874","PERIAPSIS":"538.994","TLE_LINE1":"1 54783U 22175AB  23136.80217114  .00000825  00000-0  69895-4 0  9999","BSTAR":"0.00006989500000","INCLINATION":"53.2169","GP_ID":"232000979"},{"GP_ID":"232001729","NORAD_CAT_ID":"54784","SEMIMAJOR_AXIS":"6917.867","PERIAPSIS":"539.062","TLE_LINE1":"1 54784U 22175AC  23136.85044267  .00000950  00000-0  77766-4 0  9997","INCLINATION":"53.2177","BSTAR":"0.00007776600000","EPHEMERIS_TYPE":"0","ECCENTRICITY":"0.00009680","LAUNCH_DATE":"2022-12-17","CENTER_NAME":"EARTH","OBJECT_ID":"2022-175AC","APOAPSIS":"540.402","FILE":"3909742","EPOCH":"2023-05-16T20:24:38.246688","MEAN_MOTION":"15.08844390","SITE":"AFETR","REV_AT_EPOCH":"2475","MEAN_MOTION_DOT":"0.00000950","RA_OF_ASC_NODE":"338.0279","OBJECT_TYPE":"PAYLOAD","TLE_LINE2":"2 54784  53.2177 338.0279 0000968  80.3038 279.8064 15.08844390 24758","MEAN_ANOMALY":"279.8064","ARG_OF_PERICENTER":"80.3038","OBJECT_NAME":"STARLINK-5442","MEAN_MOTION_DDOT":"0.0000000000000","COUNTRY_CODE":"US","TIME_SYSTEM":"UTC","REF_FRAME":"TEME","MEAN_ELEMENT_THEORY":"SGP4","DECAY_DATE":null,"RCS_SIZE":"LARGE","CLASSIFICATION_TYPE":"U","ELEMENT_SET_NO":"999","PERIOD":"95.437"},{"COUNTRY_CODE":"US","OBJECT_NAME":"STARLINK-5440","MEAN_MOTION_DDOT":"0.0000000000000","ARG_OF_PERICENTER":"70.0627","TLE_LINE2":"2 54785  53.2115 285.5450 0001049  70.0627 344.0319 15.41808073  1308","MEAN_ANOMALY":"344.0319","PERIOD":"93.397","ELEMENT_SET_NO":"999","DECAY_DATE":null,"RCS_SIZE":"LARGE","CLASSIFICATION_TYPE":"U","TIME_SYSTEM":"UTC","REF_FRAME":"TEME","MEAN_ELEMENT_THEORY":"SGP4","TLE_LINE1":"1 54785U 22175AD  23136.91667824 -.00909343  00000-0 -23007-1 0  9997","PERIAPSIS":"440.060","INCLINATION":"53.2115","BSTAR":"-0.02300700000000","NORAD_CAT_ID":"54785","SEMIMAJOR_AXIS":"6818.910","GP_ID":"232000477","SITE":"AFETR","REV_AT_EPOCH":"130","MEAN_MOTION_DOT":"-0.00909343","RA_OF_ASC_NODE":"285.5450","OBJECT_TYPE":"PAYLOAD","APOAPSIS":"441.490","OBJECT_ID":"2022-175AD","FILE":"3909742","EPOCH":"2023-05-16T22:00:00.999936","MEAN_MOTION":"15.41808073","ECCENTRICITY":"0.00010490","LAUNCH_DATE":"2022-12-17","CENTER_NAME":"EARTH","EPHEMERIS_TYPE":"0"},{"TIME_SYSTEM":"UTC","MEAN_ELEMENT_THEORY":"SGP4","REF_FRAME":"TEME","RCS_SIZE":"LARGE","DECAY_DATE":null,"CLASSIFICATION_TYPE":"U","PERIOD":"95.437","ELEMENT_SET_NO":"999","TLE_LINE2":"2 54786  53.2177 323.4307 0001066  87.0893 273.0221 15.08843946 24952","MEAN_ANOMALY":"273.0221","ARG_OF_PERICENTER":"87.0893","OBJECT_NAME":"STARLINK-5438","MEAN_MOTION_DDOT":"0.0000000000000","COUNTRY_CODE":"US","EPHEMERIS_TYPE":"0","ECCENTRICITY":"0.00010660","CENTER_NAME":"EARTH","LAUNCH_DATE":"2022-12-17","FILE":"3909742","EPOCH":"2023-05-16T19:05:53.624256","OBJECT_ID":"2022-175AE","APOAPSIS":"540.471","MEAN_MOTION":"15.08843946","REV_AT_EPOCH":"2495","SITE":"AFETR","RA_OF_ASC_NODE":"323.4307","OBJECT_TYPE":"PAYLOAD","MEAN_MOTION_DOT":"-0.00000190","GP_ID":"232000727","NORAD_CAT_ID":"54786","SEMIMAJOR_AXIS":"6917.868","PERIAPSIS":"538.996","TLE_LINE1":"1 54786U 22175AE  23136.79575954 -.00000190  00000-0  61724-5 0  9999","BSTAR":"0.00000617240000","INCLINATION":"53.2177"},{"OBJECT_NAME":"STARLINK-5441","MEAN_MOTION_DDOT":"0.0000000000000","COUNTRY_CODE":"US","TLE_LINE2":"2 54787  53.2165 338.0056 0001019  78.1870 281.9237 15.08846868 24756","MEAN_ANOMALY":"281.9237","ARG_OF_PERICENTER":"78.1870","RCS_SIZE":"LARGE","DECAY_DATE":null,"CLASSIFICATION_TYPE":"U","PERIOD":"95.437","ELEMENT_SET_NO":"999","TIME_SYSTEM":"UTC","MEAN_ELEMENT_THEORY":"SGP4","REF_FRAME":"TEME","NORAD_CAT_ID":"54787","SEMIMAJOR_AXIS":"6917.859","TLE_LINE1":"1 54787U 22175AF  23136.84675848  .00001694  00000-0  12446-3 0  9993","PERIAPSIS":"539.019","BSTAR":"0.00012446000000","INCLINATION":"53.2165","GP_ID":"232001479","FILE":"3909742","EPOCH":"2023-05-16T20:19:19.932672","OBJECT_ID":"2022-175AF","APOAPSIS":"540.429","MEAN_MOTION":"15.08846868","REV_AT_EPOCH":"2475","SITE":"AFETR","RA_OF_ASC_NODE":"338.0056","OBJECT_TYPE":"PAYLOAD","MEAN_MOTION_DOT":"0.00001694","EPHEMERIS_TYPE":"0","ECCENTRICITY":"0.00010190","CENTER_NAME":"EARTH","LAUNCH_DATE":"2022-12-17"},{"OBJECT_NAME":"STARLINK-5399","MEAN_MOTION_DDOT":"0.0000000000000","COUNTRY_CODE":"US","TLE_LINE2":"2 54788  53.2169 323.4027 0001061  78.1393 281.9718 15.08846596 24958","MEAN_ANOMALY":"281.9718","ARG_OF_PERICENTER":"78.1393","RCS_SIZE":"LARGE","DECAY_DATE":null,"CLASSIFICATION_TYPE":"U","PERIOD":"95.437","ELEMENT_SET_NO":"999","TIME_SYSTEM":"UTC","MEAN_ELEMENT_THEORY":"SGP4","REF_FRAME":"TEME","NORAD_CAT_ID":"54788","SEMIMAJOR_AXIS":"6917.860","PERIAPSIS":"538.991","TLE_LINE1":"1 54788U 22175AG  23136.79111927  .00001343  00000-0  10245-3 0  9997","BSTAR":"0.00010245000000","INCLINATION":"53.2169","GP_ID":"232001230","EPOCH":"2023-05-16T18:59:12.704928","FILE":"3909742","OBJECT_ID":"2022-175AG","APOAPSIS":"540.459","MEAN_MOTION":"15.08846596","REV_AT_EPOCH":"2495","SITE":"AFETR","RA_OF_ASC_NODE":"323.4027","OBJECT_TYPE":"PAYLOAD","MEAN_MOTION_DOT":"0.00001343","EPHEMERIS_TYPE":"0","ECCENTRICITY":"0.00010610","CENTER_NAME":"EARTH","LAUNCH_DATE":"2022-12-17"},{"TIME_SYSTEM":"UTC","REF_FRAME":"TEME","MEAN_ELEMENT_THEORY":"SGP4","DECAY_DATE":null,"RCS_SIZE":"LARGE","CLASSIFICATION_TYPE":"U","ELEMENT_SET_NO":"999","PERIOD":"95.439","TLE_LINE2":"2 54789  53.2196 309.7860 0001043  94.3948 265.7163 15.08823852 25110","MEAN_ANOMALY":"265.7163","ARG_OF_PERICENTER":"94.3948","OBJECT_NAME":"STARLINK-5446","MEAN_MOTION_DDOT":"0.0000000000000","COUNTRY_CODE":"US","EPHEMERIS_TYPE":"0","ECCENTRICITY":"0.00010430","CENTER_NAME":"EARTH","LAUNCH_DATE":"2022-12-17","OBJECT_ID":"2022-175AH","APOAPSIS":"540.516","FILE":"3909472","EPOCH":"2023-05-16T11:01:36.484320","MEAN_MOTION":"15.08823852","SITE":"AFETR","REV_AT_EPOCH":"2511","MEAN_MOTION_DOT":"0.00002473","OBJECT_TYPE":"PAYLOAD","RA_OF_ASC_NODE":"309.7860","GP_ID":"231967504","NORAD_CAT_ID":"54789","SEMIMAJOR_AXIS":"6917.930","TLE_LINE1":"1 54789U 22175AH  23136.45945005  .00002473  00000-0  17346-3 0  9997","PERIAPSIS":"539.073","INCLINATION":"53.2196","BSTAR":"0.00017346000000"},{"REF_FRAME":"TEME","MEAN_ELEMENT_THEORY":"SGP4","TIME_SYSTEM":"UTC","CLASSIFICATION_TYPE":"U","DECAY_DATE":null,"RCS_SIZE":"LARGE","ELEMENT_SET_NO":"999","PERIOD":"95.438","MEAN_ANOMALY":"267.4482","TLE_LINE2":"2 54790  53.2175 323.3570 0001025  92.6627 267.4482 15.08832890 24950","ARG_OF_PERICENTER":"92.6627","MEAN_MOTION_DDOT":"0.0000000000000","OBJECT_NAME":"STARLINK-5445","COUNTRY_CODE":"US","EPHEMERIS_TYPE":"0","CENTER_NAME":"EARTH","LAUNCH_DATE":"2022-12-17","ECCENTRICITY":"0.00010250","MEAN_MOTION":"15.08832890","APOAPSIS":"540.476","OBJECT_ID":"2022-175AJ","FILE":"3909742","EPOCH":"2023-05-16T18:48:36.067392","MEAN_MOTION_DOT":"0.00002256","OBJECT_TYPE":"PAYLOAD","RA_OF_ASC_NODE":"323.3570","SITE":"AFETR","REV_AT_EPOCH":"2495","GP_ID":"232000228","SEMIMAJOR_AXIS":"6917.902","NORAD_CAT_ID":"54790","INCLINATION":"53.2175","BSTAR":"0.00015978000000","PERIAPSIS":"539.058","TLE_LINE1":"1 54790U 22175AJ  23136.78375078  .00002256  00000-0  15978-3 0  9990"}];
